{"type": "FeatureCollection", "features": [{"type": "Feature", "properties": {"stn_code": "P.17", "lat": 15.93539, "lng": 99.97609, "label_lng": 99.97609, "label_lat": 15.93539}, "geometry": {"type": "Point", "coordinates": [99.97609, 15.93539]}}, {"type": "Feature", "properties": {"stn_code": "Ct.19", "lat": 15.4603, "lng": 100.02173, "label_lng": 100.02173, "label_lat": 15.4603}, "geometry": {"type": "Point", "coordinates": [100.02173, 15.4603]}}, {"type": "Feature", "properties": {"stn_code": "N.67", "lat": 15.86878, "lng": 100.2644, "label_lng": 100.2644, "label_lat": 15.86878}, "geometry": {"type": "Point", "coordinates": [100.2644, 15.86878]}}, {"type": "Feature", "properties": {"stn_code": "N.8B", "lat": 16.00941, "lng": 100.3692, "label_lng": 100.3692, "label_lat": 16.00941}, "geometry": {"type": "Point", "coordinates": [100.3692, 16.00941]}}, {"type": "Feature", "properties": {"stn_code": "C.2", "lat": 15.67059, "lng": 100.1094, "label_lng": 100.1094, "label_lat": 15.67059}, "geometry": {"type": "Point", "coordinates": [100.1094, 15.67059]}}]}